{"type": "FeatureCollection", "features": [ {"type": "Feature", "properties": {"norad_id": 37562, "name": "IRIDIUM 33 DEB", "group": "iridium-33-debris", "lat": -82.08633125797195, "lon": -115.82470974384165, "alt_km": 728.6848062551635, "timestamp": "2025-12-27T19:21:59.131501+00:00", "meta": {"OBJECT_NAME": "IRIDIUM 33 DEB", "OBJECT_ID": "1997-051XX", "EPOCH": "2025-12-26T21:32:35.047104", "MEAN_MOTION": 14.56599093, "ECCENTRICITY": 0.0026167, "INCLINATION": 86.3734, "RA_OF_ASC_NODE": 37.4257, "ARG_OF_PERICENTER": 63.296, "MEAN_ANOMALY": 114.6437, "EPHEMERIS_TYPE": 0, "CLASSIFICATION_TYPE": "U", "NORAD_CAT_ID": 37562, "ELEMENT_SET_NO": 999, "REV_AT_EPOCH": 86534, "BSTAR": 0.0012111, "MEAN_MOTION_DOT": 5.442e-05, "MEAN_MOTION_DDOT": 0}, "tle": {"line1": "1 37562U 97051XX  25360.89762786  .00005442  00000+0  12111-2 0  9996", "line2": "2 37562  86.3734  37.4257 0026167  63.2960 114.6437 14.56599093865345"}}, "geometry": {"type": "Point", "coordinates": [-115.82470974384165, -82.08633125797195]}}, {"type": "Feature", "properties": {"norad_id": 37565, "name": "IRIDIUM 33 DEB", "group": "iridium-33-debris", "lat": 46.21575335403408, "lon": 179.19305110859256, "alt_km": 717.2661152239816, "timestamp": "2025-12-27T19:21:59.131510+00:00", "meta": {"OBJECT_NAME": "IRIDIUM 33 DEB", "OBJECT_ID": "1997-051YA", "EPOCH": "2025-12-26T17:56:16.184256", "MEAN_MOTION": 14.51576066, "ECCENTRICITY": 0.00144436, "INCLINATION": 86.3492, "RA_OF_ASC_NODE": 3.4741, "ARG_OF_PERICENTER": 43.044, "MEAN_ANOMALY": 317.1892, "EPHEMERIS_TYPE": 0, "CLASSIFICATION_TYPE": "U", "NORAD_CAT_ID": 37565, "ELEMENT_SET_NO": 999, "REV_AT_EPOCH": 66040, "BSTAR": 0.00060552562, "MEAN_MOTION_DOT": 2.446e-05, "MEAN_MOTION_DDOT": 0}, "tle": {"line1": "1 37565U 97051YA  25360.74740954  .00002446  00000+0  60553-3 0  9991", "line2": "2 37565  86.3492   3.4741 0014443  43.0440 317.1892 14.51576066660408"}}, "geometry": {"type": "Point", "coordinates": [179.19305110859256, 46.21575335403408]}}, {"type": "Feature", "properties": {"norad_id": 38017, "name": "IRIDIUM 33 DEB", "group": "iridium-33-debris", "lat": 80.87190487913462, "lon": -43.79017005535331, "alt_km": 674.3320889658362, "timestamp": "2025-12-27T19:21:59.131519+00:00", "meta": {"OBJECT_NAME": "IRIDIUM 33 DEB", "OBJECT_ID": "1997-051YD", "EPOCH": "2025-12-27T04:00:37.846080", "MEAN_MOTION": 14.49494573, "ECCENTRICITY": 0.00911371, "INCLINATION": 86.3413, "RA_OF_ASC_NODE": 159.9553, "ARG_OF_PERICENTER": 54.8204, "MEAN_ANOMALY": 306.1493, "EPHEMERIS_TYPE": 0, "CLASSIFICATION_TYPE": "U", "NORAD_CAT_ID": 38017, "ELEMENT_SET_NO": 999, "REV_AT_EPOCH": 61611, "BSTAR": 0.0052100119, "MEAN_MOTION_DOT": 0.00021111, "MEAN_MOTION_DDOT": 0}, "tle": {"line1": "1 38017U 97051YD  25361.16710470  .00021111  00000+0  52100-2 0  9999", "line2": "2 38017  86.3413 159.9553 0091137  54.8204 306.1493 14.49494573616118"}}, "geometry": {"type": "Point", "coordinates": [-43.79017005535331, 80.87190487913462]}}, {"type": "Feature", "properties": {"norad_id": 38022, "name": "IRIDIUM 33 DEB", "group": "iridium-33-debris", "lat": 11.384683937414989, "lon": -170.90853662148078, "alt_km": 787.0415434075985, "timestamp": "2025-12-27T19:21:59.131528+00:00", "meta": {"OBJECT_NAME": "IRIDIUM 33 DEB", "OBJECT_ID": "1997-051YJ", "EPOCH": "2025-12-23T07:57:08.773056", "MEAN_MOTION": 14.41313849, "ECCENTRICITY": 0.00453843, "INCLINATION": 86.2683, "RA_OF_ASC_NODE": 11.8042, "ARG_OF_PERICENTER": 16.2864, "MEAN_ANOMALY": 343.9781, "EPHEMERIS_TYPE": 0, "CLASSIFICATION_TYPE": "U", "NORAD_CAT_ID": 38022, "ELEMENT_SET_NO": 999, "REV_AT_EPOCH": 69346, "BSTAR": 0.0010847612, "MEAN_MOTION_DOT": 3.57e-05, "MEAN_MOTION_DDOT": 0}, "tle": {"line1": "1 38022U 97051YJ  25357.33135154  .00003570  00000+0  10848-2 0  9991", "line2": "2 38022  86.2683  11.8042 0045384  16.2864 343.9781 14.41313849693468"}}, "geometry": {"type": "Point", "coordinates": [-170.90853662148078, 11.384683937414989]}}, {"type": "Feature", "properties": {"norad_id": 38028, "name": "IRIDIUM 33 DEB", "group": "iridium-33-debris", "lat": -37.15504102229018, "lon": 176.51147309535156, "alt_km": 762.2936423201918, "timestamp": "2025-12-27T19:21:59.131537+00:00", "meta": {"OBJECT_NAME": "IRIDIUM 33 DEB", "OBJECT_ID": "1997-051YQ", "EPOCH": "2025-12-19T17:44:22.316352", "MEAN_MOTION": 14.46188799, "ECCENTRICITY": 0.0030512, "INCLINATION": 86.3252, "RA_OF_ASC_NODE": 357.2262, "ARG_OF_PERICENTER": 99.065, "MEAN_ANOMALY": 261.4007, "EPHEMERIS_TYPE": 0, "CLASSIFICATION_TYPE": "U", "NORAD_CAT_ID": 38028, "ELEMENT_SET_NO": 999, "REV_AT_EPOCH": 65596, "BSTAR": 0.00016660929, "MEAN_MOTION_DOT": 6.2e-06, "MEAN_MOTION_DDOT": 0}, "tle": {"line1": "1 38028U 97051YQ  25353.73914718  .00000620  00000+0  16661-3 0  9991", "line2": "2 38028  86.3252 357.2262 0030512  99.0650 261.4007 14.46188799655964"}}, "geometry": {"type": "Point", "coordinates": [176.51147309535156, -37.15504102229018]}}, {"type": "Feature", "properties": {"norad_id": 38228, "name": "IRIDIUM 33 DEB", "group": "iridium-33-debris", "lat": -27.430083508371084, "lon": -136.00835170685727, "alt_km": 787.6890431128168, "timestamp": "2025-12-27T19:21:59.131547+00:00", "meta": {"OBJECT_NAME": "IRIDIUM 33 DEB", "OBJECT_ID": "1997-051ZC", "EPOCH": "2025-12-20T22:20:09.818016", "MEAN_MOTION": 14.2727844, "ECCENTRICITY": 0.0065198, "INCLINATION": 86.2935, "RA_OF_ASC_NODE": 44.9869, "ARG_OF_PERICENTER": 163.0896, "MEAN_ANOMALY": 14.0405, "EPHEMERIS_TYPE": 0, "CLASSIFICATION_TYPE": "U", "NORAD_CAT_ID": 38228, "ELEMENT_SET_NO": 999, "REV_AT_EPOCH": 84898, "BSTAR": 0.00020665, "MEAN_MOTION_DOT": 5.36e-06, "MEAN_MOTION_DDOT": 0}, "tle": {"line1": "1 38228U 97051ZC  25354.93066919  .00000536  00000+0  20665-3 0  9992", "line2": "2 38228  86.2935  44.9869 0065198 163.0896  14.0405 14.27278440848980"}}, "geometry": {"type": "Point", "coordinates": [-136.00835170685727, -27.430083508371084]}}, {"type": "Feature", "properties": {"norad_id": 38241, "name": "IRIDIUM 33 DEB", "group": "iridium-33-debris", "lat": -5.254154439053362, "lon": 164.28966803879817, "alt_km": 716.0003258871802, "timestamp": "2025-12-27T19:21:59.131556+00:00", "meta": {"OBJECT_NAME": "IRIDIUM 33 DEB", "OBJECT_ID": "1997-051ZR", "EPOCH": "2025-12-27T05:18:49.294368", "MEAN_MOTION": 14.5496061, "ECCENTRICITY": 0.0004748, "INCLINATION": 86.3242, "RA_OF_ASC_NODE": 344.2091, "ARG_OF_PERICENTER": 41.2958, "MEAN_ANOMALY": 318.8607, "EPHEMERIS_TYPE": 0, "CLASSIFICATION_TYPE": "U", "NORAD_CAT_ID": 38241, "ELEMENT_SET_NO": 999, "REV_AT_EPOCH": 60411, "BSTAR": 0.00093229, "MEAN_MOTION_DOT": 4.03e-05, "MEAN_MOTION_DDOT": 0}, "tle": {"line1": "1 38241U 97051ZR  25361.22140387  .00004030  00000+0  93229-3 0  9998", "line2": "2 38241  86.3242 344.2091 0004748  41.2958 318.8607 14.54960610604111"}}, "geometry": {"type": "Point", "coordinates": [164.28966803879817, -5.254154439053362]}}, {"type": "Feature", "properties": {"norad_id": 38474, "name": "IRIDIUM 33 DEB", "group": "iridium-33-debris", "lat": 86.13737259340635, "lon": 112.17485830485658, "alt_km": 703.6270004259786, "timestamp": "2025-12-27T19:21:59.131565+00:00", "meta": {"OBJECT_NAME": "IRIDIUM 33 DEB", "OBJECT_ID": "1997-051AAB", "EPOCH": "2025-12-21T07:20:31.212384", "MEAN_MOTION": 14.50718538, "ECCENTRICITY": 0.00276153, "INCLINATION": 86.3426, "RA_OF_ASC_NODE": 6.3307, "ARG_OF_PERICENTER": 61.1056, "MEAN_ANOMALY": 299.2914, "EPHEMERIS_TYPE": 0, "CLASSIFICATION_TYPE": "U", "NORAD_CAT_ID": 38474, "ELEMENT_SET_NO": 999, "REV_AT_EPOCH": 65442, "BSTAR": 0.00039085525, "MEAN_MOTION_DOT": 1.564e-05, "MEAN_MOTION_DDOT": 0}, "tle": {"line1": "1 38474U 97051AAB 25355.30591681  .00001564  00000+0  39086-3 0  9995", "line2": "2 38474  86.3426   6.3307 0027615  61.1056 299.2914 14.50718538654425"}}, "geometry": {"type": "Point", "coordinates": [112.17485830485658, 86.13737259340635]}}, {"type": "Feature", "properties": {"norad_id": 39777, "name": "IRIDIUM 33 DEB", "group": "iridium-33-debris", "lat": 82.76427333045376, "lon": -46.057441178715735, "alt_km": 663.2528836426745, "timestamp": "2025-12-27T19:21:59.131574+00:00", "meta": {"OBJECT_NAME": "IRIDIUM 33 DEB", "OBJECT_ID": "1997-051AAJ", "EPOCH": "2025-12-26T21:29:47.806944", "MEAN_MOTION": 14.56768068, "ECCENTRICITY": 0.006056, "INCLINATION": 85.9637, "RA_OF_ASC_NODE": 168.1747, "ARG_OF_PERICENTER": 139.2248, "MEAN_ANOMALY": 221.3516, "EPHEMERIS_TYPE": 0, "CLASSIFICATION_TYPE": "U", "NORAD_CAT_ID": 39777, "ELEMENT_SET_NO": 999, "REV_AT_EPOCH": 60391, "BSTAR": 0.0035268, "MEAN_MOTION_DOT": 0.00016216, "MEAN_MOTION_DDOT": 0}, "tle": {"line1": "1 39777U 97051AAJ 25360.89569221  .00016216  00000+0  35268-2 0  9994", "line2": "2 39777  85.9637 168.1747 0060560 139.2248 221.3516 14.56768068603913"}}, "geometry": {"type": "Point", "coordinates": [-46.057441178715735, 82.76427333045376]}}, {"type": "Feature", "properties": {"norad_id": 39778, "name": "IRIDIUM 33 DEB", "group": "iridium-33-debris", "lat": 12.567124671383473, "lon": -144.1256256528163, "alt_km": 717.215008121636, "timestamp": "2025-12-27T19:21:59.131583+00:00", "meta": {"OBJECT_NAME": "IRIDIUM 33 DEB", "OBJECT_ID": "1997-051AAK", "EPOCH": "2025-12-27T08:41:31.263360", "MEAN_MOTION": 14.54361873, "ECCENTRICITY": 0.0006354, "INCLINATION": 86.3772, "RA_OF_ASC_NODE": 36.8767, "ARG_OF_PERICENTER": 354.4551, "MEAN_ANOMALY": 5.6584, "EPHEMERIS_TYPE": 0, "CLASSIFICATION_TYPE": "U", "NORAD_CAT_ID": 39778, "ELEMENT_SET_NO": 999, "REV_AT_EPOCH": 60905, "BSTAR": 0.00091859, "MEAN_MOTION_DOT": 3.921e-05, "MEAN_MOTION_DDOT": 0}, "tle": {"line1": "1 39778U 97051AAK 25361.36216740  .00003921  00000+0  91859-3 0  9991", "line2": "2 39778  86.3772  36.8767 0006354 354.4551   5.6584 14.54361873609051"}}, "geometry": {"type": "Point", "coordinates": [-144.1256256528163, 12.567124671383473]}}]}